[{"OBJECT_NAME":"STARLINK-35611","OBJECT_ID":"2025-259F","EPOCH":"2026-03-09T19:59:39.060672","MEAN_MOTION":15.27592891,"ECCENTRICITY":0.00018065,"INCLINATION":43.0003,"RA_OF_ASC_NODE":273.5007,"ARG_OF_PERICENTER":274.1429,"MEAN_ANOMALY":85.9216,"EPHEMERIS_TYPE":0,"CLASSIFICATION_TYPE":"U","NORAD_CAT_ID":66427,"ELEMENT_SET_NO":999,"REV_AT_EPOCH":1951,"BSTAR":0.001013964,"MEAN_MOTION_DOT":0.00027756,"MEAN_MOTION_DDOT":0},{"OBJECT_NAME":"ELECTRON KICK STAGE R\/B","OBJECT_ID":"2022-147B","EPOCH":"2026-03-09T22:28:20.187264","MEAN_MOTION":15.28920172,"ECCENTRICITY":0.00095089,"INCLINATION":97.642,"RA_OF_ASC_NODE":85.1135,"ARG_OF_PERICENTER":110.4683,"MEAN_ANOMALY":249.7578,"EPHEMERIS_TYPE":0,"CLASSIFICATION_TYPE":"U","NORAD_CAT_ID":54228,"ELEMENT_SET_NO":999,"REV_AT_EPOCH":18390,"BSTAR":0.00083201931,"MEAN_MOTION_DOT":0.00023374,"MEAN_MOTION_DDOT":0}]
